NORAD_CAT_ID,OBJECT_NAME,OBJECT_TYPE,EPOCH,MEAN_MOTION,ECCENTRICITY,INCLINATION,RA_OF_ASC_NODE,ARG_OF_PERICENTER,MEAN_ANOMALY,BSTAR,MEAN_MOTION_DOT,MEAN_MOTION_DDOT,TLE_LINE0,TLE_LINE1,TLE_LINE2,SEMIMAJOR_AXIS,PERIOD,APOGEE,PERIGEE,DECAYED
53264.0,STARLINK-3950,PAYLOAD,2024-04-22 03:51:26,15.08836443,0.0001511,53.2181,36.0674,115.7614,244.3534,0.00040684,6.192e-05,0.0,0 STARLINK-3950,1 53264U 22086Y   24113.16072491  .00006192  00000-0  40684-3 0  9992,2 53264  53.2181  36.0674 0001511 115.7614 244.3534 15.08836443 97240,6917.891,95.438,540.802,538.711,0.0
53264.0,STARLINK-3950,PAYLOAD,2024-04-22 05:26:50,15.08838054,0.0001452,53.2179,35.7689,111.4752,248.6395,0.0010971,0.00017215,0.0,0 STARLINK-3950,1 53264U 22086Y   24113.22696961  .00017215  00000-0  10971-2 0  9996,2 53264  53.2179  35.7689 0001452 111.4752 248.6395 15.08838054 97432,6917.886,95.438,540.756,538.747,0.0
53264.0,STARLINK-3950,PAYLOAD,2024-04-22 18:09:55,15.08828703,0.0002286,53.2178,33.3846,150.3062,209.8061,-5.2174e-05,-1.118e-05,0.0,0 STARLINK-3950,1 53264U 22086Y   24113.75689414 -.00001118  00000-0 -52174-4 0  9999,2 53264  53.2178  33.3846 0002286 150.3062 209.8061 15.08828703 97330,6917.915,95.438,541.361,538.198,0.0
53264.0,STARLINK-3950,PAYLOAD,2024-04-22 22:56:05,15.0884167,0.000269,53.2175,32.4972,125.919,234.2053,0.00024247,3.573e-05,0.0,0 STARLINK-3950,1 53264U 22086Y   24113.95561371  .00003573  00000-0  24247-3 0  9996,2 53264  53.2175  32.4972 0002690 125.9190 234.2053 15.08841670 97540,6917.875,95.437,541.601,537.879,0.0
53264.0,STARLINK-3950,PAYLOAD,2024-04-23 02:06:51,15.08854868,0.0001216,53.2179,31.904,88.4971,271.616,0.0012252,0.00019273,0.0,0 STARLINK-3950,1 53264U 22086Y   24114.08809584  .00019273  00000-0  12252-2 0  9998,2 53264  53.2179  31.9040 0001216  88.4971 271.6160 15.08854868 97386,6917.835,95.437,540.541,538.859,0.0
53264.0,STARLINK-3950,PAYLOAD,2024-04-24 03:33:01,15.08884761,0.0001578,53.2177,27.1475,79.8368,280.2802,0.002192,0.00034813,0.0,0 STARLINK-3950,1 53264U 22086Y   24115.14793165  .00034813  00000-0  21920-2 0  9992,2 53264  53.2177  27.1475 0001578  79.8368 280.2802 15.08884761 97540,6917.744,95.435,540.7,538.517,0.0
53264.0,STARLINK-3950,PAYLOAD,2024-04-24 22:37:39,15.08853279,0.0001475,53.2182,23.582,83.5283,276.5877,0.0014567,0.0002298,0.0,0 STARLINK-3950,1 53264U 22086Y   24115.94281510  .00022980  00000-0  14567-2 0  9997,2 53264  53.2182  23.5820 0001475  83.5283 276.5877 15.08853279 97847,6917.84,95.437,540.725,538.684,0.0
53264.0,STARLINK-3950,PAYLOAD,2024-04-25 04:59:11,15.08877114,0.0001387,53.2186,22.3901,73.5027,286.6117,0.0022815,0.00036246,0.0,0 STARLINK-3950,1 53264U 22086Y   24116.20777053  .00036246  00000-0  22815-2 0  9994,2 53264  53.2186  22.3901 0001387  73.5027 286.6117 15.08877114 97703,6917.767,95.435,540.591,538.672,0.0
53264.0,STARLINK-3950,PAYLOAD,2024-04-25 20:53:03,15.08857311,0.0001299,53.2187,19.412,67.2349,292.878,0.0023183,0.00036818,0.0,0 STARLINK-3950,1 53264U 22086Y   24116.87017620  .00036818  00000-0  23183-2 0  9998,2 53264  53.2187  19.4120 0001299  67.2349 292.8780 15.08857311 97806,6917.827,95.436,540.591,538.794,0.0
53264.0,STARLINK-3950,PAYLOAD,2024-04-25 22:28:26,15.08850638,0.0001675,53.219,19.1142,105.5884,254.5293,0.0013378,0.00021073,0.0,0 STARLINK-3950,1 53264U 22086Y   24116.93641218  .00021073  00000-0  13378-2 0  9993,2 53264  53.2190  19.1142 0001675 105.5884 254.5293 15.08850638 97998,6917.848,95.437,540.872,538.554,0.0
53264.0,STARLINK-3950,PAYLOAD,2024-04-26 03:14:35,15.08864689,0.0001486,53.2189,18.2235,73.0892,287.0263,0.0021654,0.00034366,0.0,0 STARLINK-3950,1 53264U 22086Y   24117.13513229  .00034366  00000-0  21654-2 0  9991,2 53264  53.2189  18.2235 0001486  73.0892 287.0263 15.08864689 97840,6917.805,95.436,540.698,538.642,0.0
53264.0,STARLINK-3950,PAYLOAD,2024-04-26 22:19:12,15.08864695,0.0001413,53.2181,14.6568,110.7908,249.3236,0.0021159,0.0003357,0.0,0 STARLINK-3950,1 53264U 22086Y   24117.93001132  .00033570  00000-0  21159-2 0  9990,2 53264  53.2181  14.6568 0001413 110.7908 249.3236 15.08864695 98140,6917.805,95.436,540.647,538.692,0.0
53264.0,STARLINK-3950,PAYLOAD,2024-04-27 03:05:22,15.08875851,0.0001247,53.218,13.7658,76.2212,283.8919,0.002333,0.00037074,0.0,0 STARLINK-3950,1 53264U 22086Y   24118.12872970  .00037074  00000-0  23330-2 0  9994,2 53264  53.2180  13.7658 0001247  76.2212 283.8919 15.08875851 97997,6917.771,95.435,540.498,538.773,0.0
53264.0,STARLINK-3950,PAYLOAD,2024-04-27 20:34:38,15.08805609,0.000142,53.2176,10.494,113.2648,246.8494,0.00039853,6.054e-05,0.0,0 STARLINK-3950,1 53264U 22086Y   24118.85738987  .00006054  00000-0  39853-3 0  9995,2 53264  53.2176  10.4940 0001420 113.2648 246.8494 15.08805609 98103,6917.986,95.44,540.833,538.868,0.0
53264.0,STARLINK-3950,PAYLOAD,2024-04-27 22:10:01,15.08806078,0.0001397,53.2176,10.1962,108.1324,251.9821,0.00020368,2.952e-05,0.0,0 STARLINK-3950,1 53264U 22086Y   24118.92363092  .00002952  00000-0  20368-3 0  9998,2 53264  53.2176  10.1962 0001397 108.1324 251.9821 15.08806078 98293,6917.984,95.44,540.816,538.883,0.0
53264.0,STARLINK-3950,PAYLOAD,2024-04-28 09:17:44,15.0882462,0.0001596,53.219,8.1177,118.3762,241.7392,0.0009216,0.00014404,0.0,0 STARLINK-3950,1 53264U 22086Y   24119.38731714  .00014404  00000-0  92160-3 0  9993,2 53264  53.2190   8.1177 0001596 118.3762 241.7392 15.08824620 98185,6917.927,95.439,540.897,538.688,0.0
53264.0,STARLINK-3950,PAYLOAD,2024-04-28 20:25:25,15.08854596,0.0001058,53.2168,6.0324,96.968,263.1432,0.0013927,0.00021955,0.0,0 STARLINK-3950,1 53264U 22086Y   24119.85099344  .00021955  00000-0  13927-2 0  9993,2 53264  53.2168   6.0324 0001058  96.9680 263.1432 15.08854596 98250,6917.836,95.437,540.433,538.969,0.0
53264.0,STARLINK-3950,PAYLOAD,2024-04-28 22:00:48,15.08864506,0.0001049,53.2169,5.7361,98.5332,261.5779,0.0014911,0.00023538,0.0,0 STARLINK-3950,1 53264U 22086Y   24119.91723155  .00023538  00000-0  14911-2 0  9997,2 53264  53.2169   5.7361 0001049  98.5332 261.5779 15.08864506 98449,6917.805,95.436,540.396,538.945,0.0
53264.0,STARLINK-3950,PAYLOAD,2024-04-29 02:46:57,15.08877733,0.0001033,53.2169,4.8447,102.8322,257.2785,0.0014927,0.00023573,0.0,0 STARLINK-3950,1 53264U 22086Y   24120.11594611  .00023573  00000-0  14927-2 0  9990,2 53264  53.2169   4.8447 0001033 102.8322 257.2785 15.08877733 98293,6917.765,95.435,540.345,538.915,0.0
53264.0,STARLINK-3950,PAYLOAD,2024-04-29 20:16:11,15.08866334,0.0001683,53.217,1.5703,118.2008,241.9155,0.0011535,0.00018131,0.0,0 STARLINK-3950,1 53264U 22086Y   24120.84458156  .00018131  00000-0  11535-2 0  9999,2 53264  53.2170   1.5703 0001683 118.2008 241.9155 15.08866334 98406,6917.8,95.436,540.829,538.501,0.0
53264.0,STARLINK-3950,PAYLOAD,2024-04-29 21:51:34,15.08866884,0.0001584,53.2171,1.2728,129.4174,230.6959,0.0012606,0.00019846,0.0,0 STARLINK-3950,1 53264U 22086Y   24120.91081983  .00019846  00000-0  12606-2 0  9991,2 53264  53.2171   1.2728 0001584 129.4174 230.6959 15.08866884 98596,6917.798,95.436,540.759,538.567,0.0
53264.0,STARLINK-3950,PAYLOAD,2024-04-30 08:59:16,15.0883951,0.0001369,53.2169,359.1954,92.3294,267.7855,0.001764,0.00027897,0.0,0 STARLINK-3950,1 53264U 22086Y   24121.37450162  .00027897  00000-0  17640-2 0  9999,2 53264  53.2169 359.1954 0001369  92.3294 267.7855 15.08839510 98481,6917.882,95.438,540.694,538.8,0.0
53264.0,STARLINK-3950,PAYLOAD,2024-04-30 20:06:59,15.0883956,0.0001141,53.217,357.1142,100.4258,259.6863,0.0013729,0.00021629,0.0,0 STARLINK-3950,1 53264U 22086Y   24121.83818595  .00021629  00000-0  13729-2 0  9999,2 53264  53.2170 357.1142 0001141 100.4258 259.6863 15.08839560 98551,6917.882,95.438,540.536,538.957,0.0
53264.0,STARLINK-3950,PAYLOAD,2024-04-30 21:42:22,15.08839531,0.0001136,53.2168,356.8169,98.0568,262.0553,0.0014592,0.00023011,0.0,0 STARLINK-3950,1 53264U 22086Y   24121.90442622  .00023011  00000-0  14592-2 0  9997,2 53264  53.2168 356.8169 0001136  98.0568 262.0553 15.08839531 98746,6917.882,95.438,540.533,538.961,0.0
53264.0,STARLINK-3950,PAYLOAD,2024-05-01 08:50:04,15.08847243,0.0001237,53.2177,354.7343,94.8261,265.2873,0.0011448,0.00017982,0.0,0 STARLINK-3950,1 53264U 22086Y   24122.36810645  .00017982  00000-0  11448-2 0  9999,2 53264  53.2177 354.7343 0001237  94.8261 265.2873 15.08847243 98630,6917.858,95.437,540.579,538.868,0.0
53264.0,STARLINK-3950,PAYLOAD,2024-05-01 21:33:09,15.08860279,0.0001198,53.2169,352.3561,93.7917,266.3212,0.00093609,0.0001465,0.0,0 STARLINK-3950,1 53264U 22086Y   24122.89802162  .00014650  00000-0  93609-3 0  9991,2 53264  53.2169 352.3561 0001198  93.7917 266.3212 15.08860279 98890,6917.818,95.436,540.512,538.855,0.0
53264.0,STARLINK-3950,PAYLOAD,2024-05-02 19:48:32,15.08859174,1.85e-05,53.2174,348.193,191.5034,168.5954,0.00074052,0.00011524,0.0,0 STARLINK-3950,1 53264U 22086Y   24123.82537625  .00011524  00000-0  74052-3 0  9992,2 53264  53.2174 348.1930 0000185 191.5034 168.5954 15.08859174 98855,6917.822,95.436,539.815,539.559,0.0
53264.0,STARLINK-3950,PAYLOAD,2024-05-03 08:31:37,15.08857843,0.0001348,53.2163,345.815,83.9792,276.1353,0.00050977,7.838e-05,0.0,0 STARLINK-3950,1 53264U 22086Y   24124.35529377  .00007838  00000-0  50977-3 0  9999,2 53264  53.2163 345.8150 0001348  83.9792 276.1353 15.08857843 98937,6917.826,95.436,540.623,538.758,0.0
53264.0,STARLINK-3950,PAYLOAD,2024-05-03 21:14:42,15.08855616,0.000144,53.2177,343.4357,94.1628,265.9529,0.00029263,4.374e-05,0.0,0 STARLINK-3950,1 53264U 22086Y   24124.88521062  .00004374  00000-0  29263-3 0  9996,2 53264  53.2177 343.4357 0001440  94.1628 265.9529 15.08855616 99196,6917.833,95.437,540.694,538.701,0.0
53264.0,STARLINK-3950,PAYLOAD,2024-05-04 00:25:28,15.08858326,0.000138,53.2185,342.8409,94.0485,266.0665,0.00031576,4.743e-05,0.0,0 STARLINK-3950,1 53264U 22086Y   24125.01768865  .00004743  00000-0  31576-3 0  9996,2 53264  53.2185 342.8409 0001380  94.0485 266.0665 15.08858326 99036,6917.824,95.436,540.644,538.735,0.0
